[{"OBJECT_NAME":"DONGPO 08","OBJECT_ID":"2022-167E","EPOCH":"2026-03-09T22:57:52.742880","MEAN_MOTION":15.31542505,"ECCENTRICITY":0.00092155,"INCLINATION":97.6764,"RA_OF_ASC_NODE":233.3854,"ARG_OF_PERICENTER":153.9158,"MEAN_ANOMALY":206.2548,"EPHEMERIS_TYPE":0,"CLASSIFICATION_TYPE":"U","NORAD_CAT_ID":54686,"ELEMENT_SET_NO":999,"REV_AT_EPOCH":18012,"BSTAR":0.0004734784,"MEAN_MOTION_DOT":0.0001437,"MEAN_MOTION_DDOT":0},{"OBJECT_NAME":"STARLINK-31324","OBJECT_ID":"2024-031M","EPOCH":"2026-03-09T21:28:26.046624","MEAN_MOTION":15.30186716,"ECCENTRICITY":7.949e-5,"INCLINATION":53.1602,"RA_OF_ASC_NODE":295.8055,"ARG_OF_PERICENTER":96.8825,"MEAN_ANOMALY":263.2266,"EPHEMERIS_TYPE":0,"CLASSIFICATION_TYPE":"U","NORAD_CAT_ID":58976,"ELEMENT_SET_NO":999,"REV_AT_EPOCH":11654,"BSTAR":2.3641254e-5,"MEAN_MOTION_DOT":3.41e-6,"MEAN_MOTION_DDOT":0}]
